CCSDS_OMM_VERS = 2.0
CREATION_DATE  = 
ORIGINATOR     = 

OBJECT_NAME    = HULIANWANG DIGUI-147
OBJECT_ID      = 2026-013B
CENTER_NAME    = EARTH
REF_FRAME      = TEME
TIME_SYSTEM    = UTC
MEAN_ELEMENT_THEORY = SGP/SGP4

EPOCH          = 2026-02-08T09:04:53.560416
MEAN_MOTION    = 13.83183237
ECCENTRICITY   = .00008033
INCLINATION    = 50.0070
RA_OF_ASC_NODE = 104.8767
ARG_OF_PERICENTER = 347.2964
MEAN_ANOMALY   = 12.7911

EPHEMERIS_TYPE = 0
CLASSIFICATION_TYPE = U
NORAD_CAT_ID   = 67523
ELEMENT_SET_NO = 999
REV_AT_EPOCH   = 280
BSTAR          = .11369919E-3
MEAN_MOTION_DOT = -.18E-6
MEAN_MOTION_DDOT = 0

CCSDS_OMM_VERS = 2.0
CREATION_DATE  = 
ORIGINATOR     = 

OBJECT_NAME    = HULIANWANG DIGUI-148
OBJECT_ID      = 2026-013C
CENTER_NAME    = EARTH
REF_FRAME      = TEME
TIME_SYSTEM    = UTC
MEAN_ELEMENT_THEORY = SGP/SGP4

EPOCH          = 2026-02-08T12:27:47.181312
MEAN_MOTION    = 13.83304725
ECCENTRICITY   = .0002833
INCLINATION    = 50.0181
RA_OF_ASC_NODE = 104.3957
ARG_OF_PERICENTER = 153.2013
MEAN_ANOMALY   = 206.9030

EPHEMERIS_TYPE = 0
CLASSIFICATION_TYPE = U
NORAD_CAT_ID   = 67524
ELEMENT_SET_NO = 999
REV_AT_EPOCH   = 282
BSTAR          = .13384E-3
MEAN_MOTION_DOT = .4E-7
MEAN_MOTION_DDOT = 0

CCSDS_OMM_VERS = 2.0
CREATION_DATE  = 
ORIGINATOR     = 

OBJECT_NAME    = HULIANWANG DIGUI-149
OBJECT_ID      = 2026-013D
CENTER_NAME    = EARTH
REF_FRAME      = TEME
TIME_SYSTEM    = UTC
MEAN_ELEMENT_THEORY = SGP/SGP4

EPOCH          = 2026-02-08T14:08:04.095456
MEAN_MOTION    = 13.83393979
ECCENTRICITY   = .0001971
INCLINATION    = 50.0066
RA_OF_ASC_NODE = 103.9875
ARG_OF_PERICENTER = 29.3196
MEAN_ANOMALY   = 330.7810

EPHEMERIS_TYPE = 0
CLASSIFICATION_TYPE = U
NORAD_CAT_ID   = 67525
ELEMENT_SET_NO = 999
REV_AT_EPOCH   = 283
BSTAR          = .12544E-3
MEAN_MOTION_DOT = -.5E-7
MEAN_MOTION_DDOT = 0

CCSDS_OMM_VERS = 2.0
CREATION_DATE  = 
ORIGINATOR     = 

OBJECT_NAME    = HULIANWANG DIGUI-150
OBJECT_ID      = 2026-013E
CENTER_NAME    = EARTH
REF_FRAME      = TEME
TIME_SYSTEM    = UTC
MEAN_ELEMENT_THEORY = SGP/SGP4

EPOCH          = 2026-02-08T08:47:23.980128
MEAN_MOTION    = 13.83594584
ECCENTRICITY   = .000351
INCLINATION    = 50.0180
RA_OF_ASC_NODE = 104.9344
ARG_OF_PERICENTER = 105.3679
MEAN_ANOMALY   = 254.7604

EPHEMERIS_TYPE = 0
CLASSIFICATION_TYPE = U
NORAD_CAT_ID   = 67526
ELEMENT_SET_NO = 999
REV_AT_EPOCH   = 282
BSTAR          = .12462E-3
MEAN_MOTION_DOT = -.5E-7
MEAN_MOTION_DDOT = 0

CCSDS_OMM_VERS = 2.0
CREATION_DATE  = 
ORIGINATOR     = 

OBJECT_NAME    = HULIANWANG DIGUI-151
OBJECT_ID      = 2026-013F
CENTER_NAME    = EARTH
REF_FRAME      = TEME
TIME_SYSTEM    = UTC
MEAN_ELEMENT_THEORY = SGP/SGP4

EPOCH          = 2026-02-08T22:38:34.986336
MEAN_MOTION    = 13.85565258
ECCENTRICITY   = .00004255
INCLINATION    = 50.0093
RA_OF_ASC_NODE = 102.5477
ARG_OF_PERICENTER = 30.3115
MEAN_ANOMALY   = 329.7806

EPHEMERIS_TYPE = 0
CLASSIFICATION_TYPE = U
NORAD_CAT_ID   = 67527
ELEMENT_SET_NO = 999
REV_AT_EPOCH   = 288
BSTAR          = .13860096E-3
MEAN_MOTION_DOT = .15E-6
MEAN_MOTION_DDOT = 0

CCSDS_OMM_VERS = 2.0
CREATION_DATE  = 
ORIGINATOR     = 

OBJECT_NAME    = HULIANWANG DIGUI-152
OBJECT_ID      = 2026-013G
CENTER_NAME    = EARTH
REF_FRAME      = TEME
TIME_SYSTEM    = UTC
MEAN_ELEMENT_THEORY = SGP/SGP4

EPOCH          = 2026-02-08T08:45:10.609632
MEAN_MOTION    = 13.84453091
ECCENTRICITY   = .00009844
INCLINATION    = 50.0066
RA_OF_ASC_NODE = 104.7990
ARG_OF_PERICENTER = 46.0388
MEAN_ANOMALY   = 314.0590

EPHEMERIS_TYPE = 0
CLASSIFICATION_TYPE = U
NORAD_CAT_ID   = 67528
ELEMENT_SET_NO = 999
REV_AT_EPOCH   = 280
BSTAR          = .14213913E-3
MEAN_MOTION_DOT = .16E-6
MEAN_MOTION_DDOT = 0

CCSDS_OMM_VERS = 2.0
CREATION_DATE  = 
ORIGINATOR     = 

OBJECT_NAME    = HULIANWANG DIGUI-153
OBJECT_ID      = 2026-013H
CENTER_NAME    = EARTH
REF_FRAME      = TEME
TIME_SYSTEM    = UTC
MEAN_ELEMENT_THEORY = SGP/SGP4

EPOCH          = 2026-02-08T13:49:31.881216
MEAN_MOTION    = 13.84535005
ECCENTRICITY   = .0001415
INCLINATION    = 50.0018
RA_OF_ASC_NODE = 103.9036
ARG_OF_PERICENTER = 14.0972
MEAN_ANOMALY   = 345.9964

EPHEMERIS_TYPE = 0
CLASSIFICATION_TYPE = U
NORAD_CAT_ID   = 67529
ELEMENT_SET_NO = 999
REV_AT_EPOCH   = 282
BSTAR          = .27115E-4
MEAN_MOTION_DOT = -.113E-5
MEAN_MOTION_DDOT = 0

CCSDS_OMM_VERS = 2.0
CREATION_DATE  = 
ORIGINATOR     = 

OBJECT_NAME    = HULIANWANG DIGUI-154
OBJECT_ID      = 2026-013J
CENTER_NAME    = EARTH
REF_FRAME      = TEME
TIME_SYSTEM    = UTC
MEAN_ELEMENT_THEORY = SGP/SGP4

EPOCH          = 2026-02-08T10:18:15.380352
MEAN_MOTION    = 13.85055816
ECCENTRICITY   = .00002441
INCLINATION    = 50.0096
RA_OF_ASC_NODE = 104.4834
ARG_OF_PERICENTER = 334.7360
MEAN_ANOMALY   = 25.3524

EPHEMERIS_TYPE = 0
CLASSIFICATION_TYPE = U
NORAD_CAT_ID   = 67530
ELEMENT_SET_NO = 999
REV_AT_EPOCH   = 280
BSTAR          = .20184671E-3
MEAN_MOTION_DOT = .85E-6
MEAN_MOTION_DDOT = 0

CCSDS_OMM_VERS = 2.0
CREATION_DATE  = 
ORIGINATOR     = 

OBJECT_NAME    = CZ-12 R/B
OBJECT_ID      = 2026-013K
CENTER_NAME    = EARTH
REF_FRAME      = TEME
TIME_SYSTEM    = UTC
MEAN_ELEMENT_THEORY = SGP/SGP4

EPOCH          = 2026-02-08T08:43:28.024320
MEAN_MOTION    = 14.14457886
ECCENTRICITY   = .00687967
INCLINATION    = 49.9934
RA_OF_ASC_NODE = 102.1142
ARG_OF_PERICENTER = 196.8604
MEAN_ANOMALY   = 163.0017

EPHEMERIS_TYPE = 0
CLASSIFICATION_TYPE = U
NORAD_CAT_ID   = 67531
ELEMENT_SET_NO = 999
REV_AT_EPOCH   = 283
BSTAR          = .12193979E-3
MEAN_MOTION_DOT = .85E-6
MEAN_MOTION_DDOT = 0

CCSDS_OMM_VERS = 2.0
CREATION_DATE  = 
ORIGINATOR     = 

OBJECT_NAME    = STARLINK-36587
OBJECT_ID      = 2026-014A
CENTER_NAME    = EARTH
REF_FRAME      = TEME
TIME_SYSTEM    = UTC
MEAN_ELEMENT_THEORY = SGP/SGP4

EPOCH          = 2026-02-08T19:27:11.241792
MEAN_MOTION    = 15.80914771
ECCENTRICITY   = .00014778
INCLINATION    = 97.2826
RA_OF_ASC_NODE = 283.2643
ARG_OF_PERICENTER = 67.8186
MEAN_ANOMALY   = 292.3239

EPHEMERIS_TYPE = 0
CLASSIFICATION_TYPE = U
NORAD_CAT_ID   = 67532
ELEMENT_SET_NO = 999
REV_AT_EPOCH   = 402
BSTAR          = .11076819E-2
MEAN_MOTION_DOT = .218411E-2
MEAN_MOTION_DDOT = 0

CCSDS_OMM_VERS = 2.0
CREATION_DATE  = 
ORIGINATOR     = 

OBJECT_NAME    = STARLINK-36417
OBJECT_ID      = 2026-014B
CENTER_NAME    = EARTH
REF_FRAME      = TEME
TIME_SYSTEM    = UTC
MEAN_ELEMENT_THEORY = SGP/SGP4

EPOCH          = 2026-02-08T22:00:03.000096
MEAN_MOTION    = 15.75189587
ECCENTRICITY   = .00015526
INCLINATION    = 97.2860
RA_OF_ASC_NODE = 283.3480
ARG_OF_PERICENTER = 85.7563
MEAN_ANOMALY   = 93.8038

EPHEMERIS_TYPE = 0
CLASSIFICATION_TYPE = U
NORAD_CAT_ID   = 67533
ELEMENT_SET_NO = 999
REV_AT_EPOCH   = 406
BSTAR          = -.14509632E-3
MEAN_MOTION_DOT = -.21717E-3
MEAN_MOTION_DDOT = 0

CCSDS_OMM_VERS = 2.0
CREATION_DATE  = 
ORIGINATOR     = 

OBJECT_NAME    = STARLINK-36576
OBJECT_ID      = 2026-014C
CENTER_NAME    = EARTH
REF_FRAME      = TEME
TIME_SYSTEM    = UTC
MEAN_ELEMENT_THEORY = SGP/SGP4

EPOCH          = 2026-02-08T17:54:02.167488
MEAN_MOTION    = 15.80884485
ECCENTRICITY   = .00014294
INCLINATION    = 97.2832
RA_OF_ASC_NODE = 283.1989
ARG_OF_PERICENTER = 88.4735
MEAN_ANOMALY   = 271.6697

EPHEMERIS_TYPE = 0
CLASSIFICATION_TYPE = U
NORAD_CAT_ID   = 67534
ELEMENT_SET_NO = 999
REV_AT_EPOCH   = 401
BSTAR          = .84778036E-3
MEAN_MOTION_DOT = .165891E-2
MEAN_MOTION_DDOT = 0

CCSDS_OMM_VERS = 2.0
CREATION_DATE  = 
ORIGINATOR     = 

OBJECT_NAME    = STARLINK-36574
OBJECT_ID      = 2026-014D
CENTER_NAME    = EARTH
REF_FRAME      = TEME
TIME_SYSTEM    = UTC
MEAN_ELEMENT_THEORY = SGP/SGP4

EPOCH          = 2026-02-08T19:23:20.568480
MEAN_MOTION    = 15.80908649
ECCENTRICITY   = .00013314
INCLINATION    = 97.2831
RA_OF_ASC_NODE = 283.2674
ARG_OF_PERICENTER = 80.7112
MEAN_ANOMALY   = 279.4306

EPHEMERIS_TYPE = 0
CLASSIFICATION_TYPE = U
NORAD_CAT_ID   = 67535
ELEMENT_SET_NO = 999
REV_AT_EPOCH   = 402
BSTAR          = .11552247E-2
MEAN_MOTION_DOT = .22798E-2
MEAN_MOTION_DDOT = 0

CCSDS_OMM_VERS = 2.0
CREATION_DATE  = 
ORIGINATOR     = 

OBJECT_NAME    = STARLINK-36572
OBJECT_ID      = 2026-014E
CENTER_NAME    = EARTH
REF_FRAME      = TEME
TIME_SYSTEM    = UTC
MEAN_ELEMENT_THEORY = SGP/SGP4

EPOCH          = 2026-02-08T22:00:03.000096
MEAN_MOTION    = 15.76024362
ECCENTRICITY   = .0001667
INCLINATION    = 97.2837
RA_OF_ASC_NODE = 283.3824
ARG_OF_PERICENTER = 87.0362
MEAN_ANOMALY   = 170.0579

EPHEMERIS_TYPE = 0
CLASSIFICATION_TYPE = U
NORAD_CAT_ID   = 67536
ELEMENT_SET_NO = 999
REV_AT_EPOCH   = 406
BSTAR          = -.82342796E-2
MEAN_MOTION_DOT = -.1138276E-1
MEAN_MOTION_DDOT = 0

CCSDS_OMM_VERS = 2.0
CREATION_DATE  = 
ORIGINATOR     = 

OBJECT_NAME    = STARLINK-36561
OBJECT_ID      = 2026-014F
CENTER_NAME    = EARTH
REF_FRAME      = TEME
TIME_SYSTEM    = UTC
MEAN_ELEMENT_THEORY = SGP/SGP4

EPOCH          = 2026-02-08T22:00:03.000096
MEAN_MOTION    = 15.75172732
ECCENTRICITY   = .00020421
INCLINATION    = 97.2842
RA_OF_ASC_NODE = 283.3656
ARG_OF_PERICENTER = 108.4621
MEAN_ANOMALY   = 115.0031

EPHEMERIS_TYPE = 0
CLASSIFICATION_TYPE = U
NORAD_CAT_ID   = 67537
ELEMENT_SET_NO = 999
REV_AT_EPOCH   = 406
BSTAR          = .83431501E-3
MEAN_MOTION_DOT = .126078E-2
MEAN_MOTION_DDOT = 0

